[{"OBJECT_NAME":"FORTE","OBJECT_ID":"1997-047A","EPOCH":"2026-03-09T21:41:12.798240","MEAN_MOTION":14.27898785,"ECCENTRICITY":0.00196357,"INCLINATION":69.9517,"RA_OF_ASC_NODE":238.2652,"ARG_OF_PERICENTER":49.0734,"MEAN_ANOMALY":311.2084,"EPHEMERIS_TYPE":0,"CLASSIFICATION_TYPE":"U","NORAD_CAT_ID":24920,"ELEMENT_SET_NO":999,"REV_AT_EPOCH":48451,"BSTAR":0.0001374801,"MEAN_MOTION_DOT":2.83e-6,"MEAN_MOTION_DDOT":0},{"OBJECT_NAME":"FENGYUN 1C DEB","OBJECT_ID":"1999-025AGE","EPOCH":"2026-03-09T01:04:00.241536","MEAN_MOTION":14.17627847,"ECCENTRICITY":0.00633255,"INCLINATION":98.6698,"RA_OF_ASC_NODE":98.5285,"ARG_OF_PERICENTER":238.6047,"MEAN_ANOMALY":154.5853,"EPHEMERIS_TYPE":0,"CLASSIFICATION_TYPE":"U","NORAD_CAT_ID":30467,"ELEMENT_SET_NO":999,"REV_AT_EPOCH":98400,"BSTAR":0.0009481648,"MEAN_MOTION_DOT":1.923e-5,"MEAN_MOTION_DDOT":0}]
